STARLINK-31630          
1 59271U 24050T   26068.56880718 -.00002063  00000+0 -57526-4 0  9991
2 59271  53.1600 168.5079 0001409  92.3163 267.7999 15.30200807110710
STARLINK-32599          
1 62048U 24216S   26068.90114945  .00045138  00000+0  16390-2 0  9991
2 62048  43.0042 262.4209 0002913 261.7643  98.2879 15.27593793 73828
